DELTA 1 R/B             
1 20323U 89089B   25310.63160280  .00000537  00000+0  14152-3 0  9991
2 20323  97.0789 172.5862 0069931 150.3347 210.1846 14.50525744877892
ARIANE 40 R/B           
1 20443U 90005H   25310.60154412  .00000489  00000+0  16962-3 0  9998
2 20443  98.3293   9.7923 0009595 209.2099 150.8554 14.39754852875093
DELTA 2 R/B(1)          
1 20453U 90008B   25310.52884985  .00049787  00000+0  87594-3 0  9991
2 20453  35.6082 253.7698 0118535 209.2955 150.1092 15.41848990907031
COSMOS 2058             
1 20465U 90010A   25310.84722373  .00004214  00000+0  25697-3 0  9996
2 20465  82.4668 168.3384 0011465  40.2914 319.9163 15.10053482923693
SL-14 R/B               
1 20466U 90010B   25310.65854307  .00000695  00000+0  81540-4 0  9998
2 20466  82.5051  22.9278 0019486 349.7706  10.3109 14.83420854910244
SL-14 R/B               
1 20511U 90018B   25310.82811430  .00000611  00000+0  73857-4 0  9996
2 20511  82.5212 337.9341 0017555 132.9331 227.3359 14.81994706904380
HST                     
1 20580U 90037B   25310.66648324  .00008493  00000+0  30006-3 0  9999
2 20580  28.4657 157.8958 0001635 179.8575 180.2020 15.27343532754474
SL-16 R/B               
1 20625U 90046B   25310.69259689 -.00000143  00000+0 -49117-4 0  9994
2 20625  70.9988 196.2228 0012377 138.8803 221.3255 14.14992064830998
COSMOS 2084             
1 20663U 90055A   25310.68529727  .00005294  00000+0  38268-3 0  9992
2 20663  62.7925  34.8137 0037629 170.3954 189.7874 15.04689729917802
SL-6 R/B(2)             
1 20666U 90055D   25310.37329192  .00003364  00000+0  26432-3 0  9991
2 20666  62.7836 312.9587 0010706 276.6288  83.3592 15.02799819919653
SL-8 R/B                
1 20775U 90078B   25310.61302610  .00020802  00000+0  64217-3 0  9999
2 20775  82.9074   1.5881 0382396  66.6716 297.4250 14.83996563791010
SL-8 R/B                
1 21088U 91006B   25310.85957747  .00000145  00000+0  13035-3 0  9992
2 21088  82.9405 261.4026 0023130  22.6573 356.1136 13.77482157747169
