CCSDS_OMM_VERS = 2.0
CREATION_DATE  = 
ORIGINATOR     = 

OBJECT_NAME    = DELTA 1 R/B
OBJECT_ID      = 1989-089B
CENTER_NAME    = EARTH
REF_FRAME      = TEME
TIME_SYSTEM    = UTC
MEAN_ELEMENT_THEORY = SGP/SGP4

EPOCH          = 2025-11-06T15:09:30.481920
MEAN_MOTION    = 14.50525744
ECCENTRICITY   = .00699313
INCLINATION    = 97.0789
RA_OF_ASC_NODE = 172.5862
ARG_OF_PERICENTER = 150.3347
MEAN_ANOMALY   = 210.1846

EPHEMERIS_TYPE = 0
CLASSIFICATION_TYPE = U
NORAD_CAT_ID   = 20323
ELEMENT_SET_NO = 999
REV_AT_EPOCH   = 87789
BSTAR          = .14151672E-3
MEAN_MOTION_DOT = .537E-5
MEAN_MOTION_DDOT = 0

CCSDS_OMM_VERS = 2.0
CREATION_DATE  = 
ORIGINATOR     = 

OBJECT_NAME    = ARIANE 40 R/B
OBJECT_ID      = 1990-005H
CENTER_NAME    = EARTH
REF_FRAME      = TEME
TIME_SYSTEM    = UTC
MEAN_ELEMENT_THEORY = SGP/SGP4

EPOCH          = 2025-11-06T14:26:13.411968
MEAN_MOTION    = 14.39754852
ECCENTRICITY   = .0009595
INCLINATION    = 98.3293
RA_OF_ASC_NODE = 9.7923
ARG_OF_PERICENTER = 209.2099
MEAN_ANOMALY   = 150.8554

EPHEMERIS_TYPE = 0
CLASSIFICATION_TYPE = U
NORAD_CAT_ID   = 20443
ELEMENT_SET_NO = 999
REV_AT_EPOCH   = 87509
BSTAR          = .16962499E-3
MEAN_MOTION_DOT = .489E-5
MEAN_MOTION_DDOT = 0

CCSDS_OMM_VERS = 2.0
CREATION_DATE  = 
ORIGINATOR     = 

OBJECT_NAME    = DELTA 2 R/B(1)
OBJECT_ID      = 1990-008B
CENTER_NAME    = EARTH
REF_FRAME      = TEME
TIME_SYSTEM    = UTC
MEAN_ELEMENT_THEORY = SGP/SGP4

EPOCH          = 2025-11-06T12:41:32.627040
MEAN_MOTION    = 15.41848990
ECCENTRICITY   = .01185355
INCLINATION    = 35.6082
RA_OF_ASC_NODE = 253.7698
ARG_OF_PERICENTER = 209.2955
MEAN_ANOMALY   = 150.1092

EPHEMERIS_TYPE = 0
CLASSIFICATION_TYPE = U
NORAD_CAT_ID   = 20453
ELEMENT_SET_NO = 999
REV_AT_EPOCH   = 90703
BSTAR          = .87594252E-3
MEAN_MOTION_DOT = .49787E-3
MEAN_MOTION_DDOT = 0

CCSDS_OMM_VERS = 2.0
CREATION_DATE  = 
ORIGINATOR     = 

OBJECT_NAME    = COSMOS 2058
OBJECT_ID      = 1990-010A
CENTER_NAME    = EARTH
REF_FRAME      = TEME
TIME_SYSTEM    = UTC
MEAN_ELEMENT_THEORY = SGP/SGP4

EPOCH          = 2025-11-06T20:20:00.130272
MEAN_MOTION    = 15.10053482
ECCENTRICITY   = .00114658
INCLINATION    = 82.4668
RA_OF_ASC_NODE = 168.3384
ARG_OF_PERICENTER = 40.2914
MEAN_ANOMALY   = 319.9163

EPHEMERIS_TYPE = 0
CLASSIFICATION_TYPE = U
NORAD_CAT_ID   = 20465
ELEMENT_SET_NO = 999
REV_AT_EPOCH   = 92369
BSTAR          = .25697439E-3
MEAN_MOTION_DOT = .4214E-4
MEAN_MOTION_DDOT = 0

CCSDS_OMM_VERS = 2.0
CREATION_DATE  = 
ORIGINATOR     = 

OBJECT_NAME    = SL-14 R/B
OBJECT_ID      = 1990-010B
CENTER_NAME    = EARTH
REF_FRAME      = TEME
TIME_SYSTEM    = UTC
MEAN_ELEMENT_THEORY = SGP/SGP4

EPOCH          = 2025-11-06T15:48:18.121248
MEAN_MOTION    = 14.83420854
ECCENTRICITY   = .0019486
INCLINATION    = 82.5051
RA_OF_ASC_NODE = 22.9278
ARG_OF_PERICENTER = 349.7706
MEAN_ANOMALY   = 10.3109

EPHEMERIS_TYPE = 0
CLASSIFICATION_TYPE = U
NORAD_CAT_ID   = 20466
ELEMENT_SET_NO = 999
REV_AT_EPOCH   = 91024
BSTAR          = .81540418E-4
MEAN_MOTION_DOT = .695E-5
MEAN_MOTION_DDOT = 0

CCSDS_OMM_VERS = 2.0
CREATION_DATE  = 
ORIGINATOR     = 

OBJECT_NAME    = SL-14 R/B
OBJECT_ID      = 1990-018B
CENTER_NAME    = EARTH
REF_FRAME      = TEME
TIME_SYSTEM    = UTC
MEAN_ELEMENT_THEORY = SGP/SGP4

EPOCH          = 2025-11-06T19:52:29.075520
MEAN_MOTION    = 14.81994706
ECCENTRICITY   = .00175555
INCLINATION    = 82.5212
RA_OF_ASC_NODE = 337.9341
ARG_OF_PERICENTER = 132.9331
MEAN_ANOMALY   = 227.3359

EPHEMERIS_TYPE = 0
CLASSIFICATION_TYPE = U
NORAD_CAT_ID   = 20511
ELEMENT_SET_NO = 999
REV_AT_EPOCH   = 90438
BSTAR          = .73857434E-4
MEAN_MOTION_DOT = .611E-5
MEAN_MOTION_DDOT = 0

CCSDS_OMM_VERS = 2.0
CREATION_DATE  = 
ORIGINATOR     = 

OBJECT_NAME    = HST
OBJECT_ID      = 1990-037B
CENTER_NAME    = EARTH
REF_FRAME      = TEME
TIME_SYSTEM    = UTC
MEAN_ELEMENT_THEORY = SGP/SGP4

EPOCH          = 2025-11-06T15:59:44.151936
MEAN_MOTION    = 15.27343532
ECCENTRICITY   = .00016351
INCLINATION    = 28.4657
RA_OF_ASC_NODE = 157.8958
ARG_OF_PERICENTER = 179.8575
MEAN_ANOMALY   = 180.2020

EPHEMERIS_TYPE = 0
CLASSIFICATION_TYPE = U
NORAD_CAT_ID   = 20580
ELEMENT_SET_NO = 999
REV_AT_EPOCH   = 75447
BSTAR          = .30005899E-3
MEAN_MOTION_DOT = .8493E-4
MEAN_MOTION_DDOT = 0

CCSDS_OMM_VERS = 2.0
CREATION_DATE  = 
ORIGINATOR     = 

OBJECT_NAME    = SL-16 R/B
OBJECT_ID      = 1990-046B
CENTER_NAME    = EARTH
REF_FRAME      = TEME
TIME_SYSTEM    = UTC
MEAN_ELEMENT_THEORY = SGP/SGP4

EPOCH          = 2025-11-06T16:37:20.371296
MEAN_MOTION    = 14.14992064
ECCENTRICITY   = .00123776
INCLINATION    = 70.9988
RA_OF_ASC_NODE = 196.2228
ARG_OF_PERICENTER = 138.8803
MEAN_ANOMALY   = 221.3255

EPHEMERIS_TYPE = 0
CLASSIFICATION_TYPE = U
NORAD_CAT_ID   = 20625
ELEMENT_SET_NO = 999
REV_AT_EPOCH   = 83099
BSTAR          = -.49117252E-4
MEAN_MOTION_DOT = -.143E-5
MEAN_MOTION_DDOT = 0

CCSDS_OMM_VERS = 2.0
CREATION_DATE  = 
ORIGINATOR     = 

OBJECT_NAME    = COSMOS 2084
OBJECT_ID      = 1990-055A
CENTER_NAME    = EARTH
REF_FRAME      = TEME
TIME_SYSTEM    = UTC
MEAN_ELEMENT_THEORY = SGP/SGP4

EPOCH          = 2025-11-06T16:26:49.684128
MEAN_MOTION    = 15.04689729
ECCENTRICITY   = .00376299
INCLINATION    = 62.7925
RA_OF_ASC_NODE = 34.8137
ARG_OF_PERICENTER = 170.3954
MEAN_ANOMALY   = 189.7874

EPHEMERIS_TYPE = 0
CLASSIFICATION_TYPE = U
NORAD_CAT_ID   = 20663
ELEMENT_SET_NO = 999
REV_AT_EPOCH   = 91780
BSTAR          = .38268065E-3
MEAN_MOTION_DOT = .5294E-4
MEAN_MOTION_DDOT = 0

CCSDS_OMM_VERS = 2.0
CREATION_DATE  = 
ORIGINATOR     = 

OBJECT_NAME    = SL-6 R/B(2)
OBJECT_ID      = 1990-055D
CENTER_NAME    = EARTH
REF_FRAME      = TEME
TIME_SYSTEM    = UTC
MEAN_ELEMENT_THEORY = SGP/SGP4

EPOCH          = 2025-11-06T08:57:32.421888
MEAN_MOTION    = 15.02799819
ECCENTRICITY   = .00107068
INCLINATION    = 62.7836
RA_OF_ASC_NODE = 312.9587
ARG_OF_PERICENTER = 276.6288
MEAN_ANOMALY   = 83.3592

EPHEMERIS_TYPE = 0
CLASSIFICATION_TYPE = U
NORAD_CAT_ID   = 20666
ELEMENT_SET_NO = 999
REV_AT_EPOCH   = 91965
BSTAR          = .26432153E-3
MEAN_MOTION_DOT = .3364E-4
MEAN_MOTION_DDOT = 0

CCSDS_OMM_VERS = 2.0
CREATION_DATE  = 
ORIGINATOR     = 

OBJECT_NAME    = SL-8 R/B
OBJECT_ID      = 1990-078B
CENTER_NAME    = EARTH
REF_FRAME      = TEME
TIME_SYSTEM    = UTC
MEAN_ELEMENT_THEORY = SGP/SGP4

EPOCH          = 2025-11-06T14:42:45.455040
MEAN_MOTION    = 14.83996563
ECCENTRICITY   = .03823968
INCLINATION    = 82.9074
RA_OF_ASC_NODE = 1.5881
ARG_OF_PERICENTER = 66.6716
MEAN_ANOMALY   = 297.4250

EPHEMERIS_TYPE = 0
CLASSIFICATION_TYPE = U
NORAD_CAT_ID   = 20775
ELEMENT_SET_NO = 999
REV_AT_EPOCH   = 79101
BSTAR          = .64217462E-3
MEAN_MOTION_DOT = .20802E-3
MEAN_MOTION_DDOT = 0

CCSDS_OMM_VERS = 2.0
CREATION_DATE  = 
ORIGINATOR     = 

OBJECT_NAME    = SL-8 R/B
OBJECT_ID      = 1991-006B
CENTER_NAME    = EARTH
REF_FRAME      = TEME
TIME_SYSTEM    = UTC
MEAN_ELEMENT_THEORY = SGP/SGP4

EPOCH          = 2025-11-06T20:37:47.493408
MEAN_MOTION    = 13.77482157
ECCENTRICITY   = .00231308
INCLINATION    = 82.9405
RA_OF_ASC_NODE = 261.4026
ARG_OF_PERICENTER = 22.6573
MEAN_ANOMALY   = 356.1136

EPHEMERIS_TYPE = 0
CLASSIFICATION_TYPE = U
NORAD_CAT_ID   = 21088
ELEMENT_SET_NO = 999
REV_AT_EPOCH   = 74716
BSTAR          = .13034593E-3
MEAN_MOTION_DOT = .145E-5
MEAN_MOTION_DDOT = 0

